OBJECT_NAME,OBJECT_ID,EPOCH,MEAN_MOTION,ECCENTRICITY,INCLINATION,RA_OF_ASC_NODE,ARG_OF_PERICENTER,MEAN_ANOMALY,EPHEMERIS_TYPE,CLASSIFICATION_TYPE,NORAD_CAT_ID,ELEMENT_SET_NO,REV_AT_EPOCH,BSTAR,MEAN_MOTION_DOT,MEAN_MOTION_DDOT
H-2A R/B,2006-002B,2026-07-07T22:44:36.940992,15.18366267,.00503094,98.2586,346.6613,190.6572,169.3598,0,U,28932,999,11267,.21616051E-3,.4505E-4,0
RESURS-DK 1,2006-021A,2026-07-08T12:26:22.688160,15.13304301,.00067621,69.9328,284.3328,278.6147,81.4253,0,U,29228,999,10580,.73039411E-4,.1195E-4,0
CZ-4B R/B,2006-046C,2026-07-08T13:06:46.545120,15.17946869,.00319333,97.5443,234.0876,205.3737,154.5931,0,U,29507,999,7837,.14868281E-3,.2986E-4,0
CZ-2C R/B,2007-010B,2026-07-08T13:07:13.330848,14.20280752,.00579217,98.4114,296.8547,303.4831,56.0818,0,U,31114,999,99687,.42778838E-4,.51E-6,0
COSMO-SKYMED 1,2007-023A,2026-07-08T14:08:08.210688,14.97200232,.00010464,97.8846,21.6258,90.7210,269.4131,0,U,31598,999,3299,.14751042E-3,.1646E-4,0
COSMOS 2428,2007-029A,2026-07-08T14:16:35.647392,14.12931118,.00071715,70.9381,309.5288,93.9940,266.2001,0,U,31792,999,98117,.1103246E-3,.158E-5,0
SL-16 R/B,2007-029B,2026-07-08T14:38:07.429344,14.14850853,.00021554,70.9754,278.1962,258.0463,201.9899,0,U,31793,999,98247,-.48932779E-4,-.142E-5,0
KORONAS-FOTON,2009-003A,2026-07-08T07:25:14.669184,15.46181860,.00125311,82.4297,150.2185,83.3760,276.8914,0,U,33504,999,96436,.17806209E-3,.8802E-4,0
CZ-2C R/B,2011-030B,2026-07-08T09:39:48.765600,14.81523043,.00512278,97.8665,144.4078,318.8120,202.9499,0,U,37731,999,80796,.11499824E-3,.867E-5,0
H-2A R/B,2012-025E,2026-07-08T08:42:31.973184,14.95825169,.00421131,98.4845,166.2567,278.1729,81.4715,0,U,38341,999,76625,.15719404E-3,.1715E-4,0
SHIJIAN-16 (SJ-16),2013-057A,2026-07-08T13:17:26.706048,14.92656613,.0016028,74.9738,316.2136,180.7652,179.3515,0,U,39358,999,68953,.55790715E-4,.547E-5,0
SL-4 R/B,2014-021B,2026-07-08T04:32:06.847296,15.42381949,.00901642,51.6052,107.8513,182.7463,177.3039,0,U,39679,999,67485,.15160744E-3,.7242E-4,0
ALOS-2,2014-029A,2026-07-08T12:16:03.714240,14.79474550,.0001629,97.9221,286.3707,92.1512,267.9886,0,U,39766,999,65473,.20897687E-3,.151E-4,0
YAOGAN-29,2015-069A,2026-07-08T13:33:42.022080,14.83103335,.00012664,98.0022,218.2307,20.6466,339.4799,0,U,41038,999,57379,.6809306E-4,.501E-5,0
ASTRO-H (HITOMI),2016-012A,2026-07-08T09:03:43.814016,15.10613368,.00095342,30.9999,297.3260,106.5144,253.6542,0,U,41337,999,57049,.97293619E-4,.1744E-4,0
HXMT (HUIYAN),2017-034A,2026-07-08T13:51:00.335808,15.18648122,.00327565,43.0145,63.9217,280.4228,79.2930,0,U,42758,999,50091,.15260955E-3,.3017E-4,0
SAOCOM 1A,2018-076A,2026-07-08T12:53:04.455168,14.82163461,.00014719,97.8892,15.9750,83.0137,277.1243,0,U,43641,999,41926,.15065949E-4,.68E-6,0
H-2A R/B,2018-084L,2026-07-08T10:16:44.141952,15.46010593,.00208327,98.8546,72.9709,325.6693,34.3204,0,U,43682,999,42440,.27481516E-3,.13406E-3,0
SAOCOM 1B,2020-059A,2026-07-08T13:38:04.032672,14.82155452,.00015957,97.8898,15.1019,81.4473,278.6921,0,U,46265,999,31665,.15821336E-4,.74E-6,0
CSS (TIANHE),2021-035A,2026-07-08T10:05:20.011200,15.58021260,.00028748,41.4680,192.8944,277.9421,82.1091,0,U,48274,999,29648,.37581781E-4,.2571E-4,0
COSMOS 2550,2021-056A,2026-07-08T17:43:17.186304,15.33782712,.0008406,67.1406,34.7150,271.2364,88.7827,0,U,48865,999,28202,.30413E-4,.808E-5,0
CZ-2C R/B,2022-058K,2026-07-08T00:36:15.609888,15.63415474,.00308779,50.1858,54.9707,352.9832,7.0706,0,U,52794,999,22890,.28936732E-3,.27467E-3,0
CZ-2C R/B,2022-132E,2026-07-08T14:13:59.348928,15.74304346,.00108505,97.2897,197.6136,10.9428,349.2071,0,U,54039,999,20931,.38986112E-3,.5641E-3,0
GSLV R/B,2022-138AN,2026-07-08T05:40:45.667488,14.97361488,.00240993,87.3814,125.9157,74.9872,285.4025,0,U,54149,999,20196,.19492771E-3,.2305E-4,0
XRISM,2023-137A,2026-07-08T12:08:14.995968,15.12641157,.00078078,31.0012,221.4908,179.3343,180.7307,0,U,57800,999,15609,.12454899E-3,.233E-4,0
ACS3,2024-077B,2026-07-08T12:19:38.888256,13.95339292,.01155197,97.1730,103.5700,44.4049,316.6311,0,U,59588,999,11101,.17629215E-1,.25285E-3,0
SPACEMOBILE-003,2024-163A,2026-07-07T14:09:21.655872,15.20789546,.00059349,52.9711,215.6104,173.0520,187.0558,0,U,61045,999,10087,.51475816E-4,.822E-5,0
SPACEMOBILE-005,2024-163B,2026-07-08T08:41:08.381184,15.20763837,.00089034,52.9802,212.0048,170.8049,189.3110,0,U,61046,999,10098,.14390398E-3,.2885E-4,0
SPACEMOBILE-001,2024-163C,2026-07-08T11:48:14.698656,15.20812105,.00075215,52.9747,211.1260,173.6655,186.4436,0,U,61047,999,10100,.3983529E-4,.562E-5,0
SPACEMOBILE-002,2024-163D,2026-07-08T11:25:13.505664,15.20856992,.00067298,52.9765,211.2391,173.3276,186.7809,0,U,61048,999,10100,.20198264E-3,.4194E-4,0
