H-2A R/B                
1 28932U 06002B   26188.94764978  .00004505  00000+0  21616-3 0  9993
2 28932  98.2586 346.6613 0050309 190.6572 169.3598 15.18366267112673
RESURS-DK 1             
1 29228U 06021A   26189.51831815  .00001195  00000+0  73039-4 0  9991
2 29228  69.9328 284.3328 0006762 278.6147  81.4253 15.13304301105806
CZ-4B R/B               
1 29507U 06046C   26189.54637205  .00002986  00000+0  14868-3 0  9991
2 29507  97.5443 234.0876 0031933 205.3737 154.5931 15.17946869 78372
CZ-2C R/B               
1 31114U 07010B   26189.54668207  .00000051  00000+0  42779-4 0  9990
2 31114  98.4114 296.8547 0057921 303.4831  56.0818 14.20280752996874
COSMO-SKYMED 1          
1 31598U 07023A   26189.58898392  .00001646  00000+0  14751-3 0  9993
2 31598  97.8846  21.6258 0001046  90.7210 269.4131 14.97200232 32993
COSMOS 2428             
1 31792U 07029A   26189.59485703  .00000158  00000+0  11032-3 0  9990
2 31792  70.9381 309.5288 0007171  93.9940 266.2001 14.12931118981171
SL-16 R/B               
1 31793U 07029B   26189.60980821 -.00000142  00000+0 -48933-4 0  9990
2 31793  70.9754 278.1962 0002155 258.0463 201.9899 14.14850853982470
KORONAS-FOTON           
1 33504U 09003A   26189.30919756  .00008802  00000+0  17806-3 0  9995
2 33504  82.4297 150.2185 0012531  83.3760 276.8914 15.46181860964365
CZ-2C R/B               
1 37731U 11030B   26189.40264775  .00000867  00000+0  11500-3 0  9997
2 37731  97.8665 144.4078 0051227 318.8120 202.9499 14.81523043807968
H-2A R/B                
1 38341U 12025E   26189.36287006  .00001715  00000+0  15719-3 0  9996
2 38341  98.4845 166.2567 0042113 278.1729  81.4715 14.95825169766251
SHIJIAN-16 (SJ-16)      
1 39358U 13057A   26189.55378132  .00000547  00000+0  55791-4 0  9990
2 39358  74.9738 316.2136 0016028 180.7652 179.3515 14.92656613689531
SL-4 R/B                
1 39679U 14021B   26189.18896814  .00007242  00000+0  15161-3 0  9994
2 39679  51.6052 107.8513 0090164 182.7463 177.3039 15.42381949674857
ALOS-2                  
1 39766U 14029A   26189.51115410  .00001510  00000+0  20898-3 0  9997
2 39766  97.9221 286.3707 0001629  92.1512 267.9886 14.79474550654731
YAOGAN-29               
1 41038U 15069A   26189.56506970  .00000501  00000+0  68093-4 0  9996
2 41038  98.0022 218.2307 0001266  20.6466 339.4799 14.83103335573797
ASTRO-H (HITOMI)        
1 41337U 16012A   26189.37759044  .00001744  00000+0  97294-4 0  9993
2 41337  30.9999 297.3260 0009534 106.5144 253.6542 15.10613368570496
HXMT (HUIYAN)           
1 42758U 17034A   26189.57708722  .00003017  00000+0  15261-3 0  9993
2 42758  43.0145  63.9217 0032756 280.4228  79.2930 15.18648122500915
SAOCOM 1A               
1 43641U 18076A   26189.53685712  .00000068  00000+0  15066-4 0  9998
2 43641  97.8892  15.9750 0001471  83.0137 277.1243 14.82163461419269
H-2A R/B                
1 43682U 18084L   26189.42828868  .00013406  00000+0  27482-3 0  9995
2 43682  98.8546  72.9709 0020832 325.6693  34.3204 15.46010593424402
SAOCOM 1B               
1 46265U 20059A   26189.56810223  .00000074  00000+0  15821-4 0  9993
2 46265  97.8898  15.1019 0001595  81.4473 278.6921 14.82155452316651
CSS (TIANHE)            
1 48274U 21035A   26189.42037050  .00002571  00000+0  37582-4 0  9996
2 48274  41.4680 192.8944 0002874 277.9421  82.1091 15.58021260296480
COSMOS 2550             
1 48865U 21056A   26189.73839336  .00000808  00000+0  30413-4 0  9993
2 48865  67.1406  34.7150 0008406 271.2364  88.7827 15.33782712282023
CZ-2C R/B               
1 52794U 22058K   26189.02518067  .00027467  00000+0  28937-3 0  9996
2 52794  50.1858  54.9707 0030877 352.9832   7.0706 15.63415474228906
CZ-2C R/B               
1 54039U 22132E   26189.59304802  .00056410  00000+0  38986-3 0  9990
2 54039  97.2897 197.6136 0010850  10.9428 349.2071 15.74304346209314
GSLV R/B                
1 54149U 22138AN  26189.23663967  .00002305  00000+0  19493-3 0  9995
2 54149  87.3814 125.9157 0024099  74.9872 285.4025 14.97361488201962
XRISM                   
1 57800U 23137A   26189.50572912  .00002330  00000+0  12455-3 0  9990
2 57800  31.0012 221.4908 0007807 179.3343 180.7307 15.12641157156097
ACS3                    
1 59588U 24077B   26189.51364454  .00025285  00000+0  17629-1 0  9990
2 59588  97.1730 103.5700 0115519  44.4049 316.6311 13.95339292111018
SPACEMOBILE-003         
1 61045U 24163A   26188.58983398  .00000822  00000+0  51476-4 0  9998
2 61045  52.9711 215.6104 0005934 173.0520 187.0558 15.20789546100878
SPACEMOBILE-005         
1 61046U 24163B   26189.36190256  .00002885  00000+0  14390-3 0  9993
2 61046  52.9802 212.0048 0008903 170.8049 189.3110 15.20763837100984
SPACEMOBILE-001         
1 61047U 24163C   26189.49183679  .00000562  00000+0  39835-4 0  9991
2 61047  52.9747 211.1260 0007521 173.6655 186.4436 15.20812105101004
SPACEMOBILE-002         
1 61048U 24163D   26189.47585076  .00004194  00000+0  20198-3 0  9993
2 61048  52.9765 211.2391 0006729 173.3276 186.7809 15.20856992101005
